[{"OBJECT_NAME":"STARLINK-4459","OBJECT_ID":"2022-105Y","EPOCH":"2026-03-09T16:23:57.437088","MEAN_MOTION":15.05648919,"ECCENTRICITY":0.00023334,"INCLINATION":97.6028,"RA_OF_ASC_NODE":311.2495,"ARG_OF_PERICENTER":79.6018,"MEAN_ANOMALY":280.5472,"EPHEMERIS_TYPE":0,"CLASSIFICATION_TYPE":"U","NORAD_CAT_ID":53670,"ELEMENT_SET_NO":999,"REV_AT_EPOCH":19330,"BSTAR":5.6703135e-5,"MEAN_MOTION_DOT":7.57e-6,"MEAN_MOTION_DDOT":0},{"OBJECT_NAME":"CZ-4C R\/B","OBJECT_ID":"2022-039B","EPOCH":"2026-03-09T15:51:32.485824","MEAN_MOTION":15.03008334,"ECCENTRICITY":0.0113659,"INCLINATION":98.2525,"RA_OF_ASC_NODE":105.9247,"ARG_OF_PERICENTER":45.8852,"MEAN_ANOMALY":315.1654,"EPHEMERIS_TYPE":0,"CLASSIFICATION_TYPE":"U","NORAD_CAT_ID":52258,"ELEMENT_SET_NO":999,"REV_AT_EPOCH":21291,"BSTAR":0.00022979194,"MEAN_MOTION_DOT":3.483e-5,"MEAN_MOTION_DDOT":0}]
